SL-3 R/B                
1 19046U 88032B   26067.08665986  .00008152  00000+0  37993-3 0  9999
2 19046  97.5197  50.3430 0024321 237.4031 122.4856 15.19888486 51863
SL-16 R/B               
1 19120U 88039B   26067.14827608 -.00000150  00000+0 -47846-4 0  9998
2 19120  71.0132  71.8070 0022697 336.5845  23.4244 14.19615462958169
COSMOS 1953             
1 19210U 88050A   26066.72713706  .00012521  00000+0  44939-3 0  9999
2 19210  82.5102 160.2199 0012449 128.9174 231.3177 15.28485046 37482
SL-8 R/B                
1 19257U 88053B   26067.12096403  .00000352  00000+0  12243-3 0  9998
2 19257  74.0462 115.3581 0021389 294.7922  95.3187 14.38914924976371
COSMOS 1975             
1 19573U 88093A   26067.15318512  .00010868  00000+0  39531-3 0  9996
2 19573  82.5181 119.2276 0012015 168.5425 191.6090 15.28045362 19170
SL-14 R/B               
1 19574U 88093B   26067.17110525  .00000841  00000+0  93862-4 0  9991
2 19574  82.5303  43.4692 0021865  46.2842 324.5896 14.85654687   792
SL-16 R/B               
1 19650U 88102B   26066.99778654  .00000272  00000+0  16170-3 0  9993
2 19650  71.0000 155.0571 0013849   4.2178 355.9060 14.16150967926658
INTERCOSMOS 24          
1 20261U 89080A   26067.13452860  .00000980  00000+0  29200-3 0  9998
2 20261  82.6028 105.4171 1186719 296.4335  51.9783 12.59555505666602
SL-14 R/B               
1 20262U 89080C   26067.03544932  .00000865  00000+0  25677-3 0  9996
2 20262  82.5974 174.2478 1230514 188.5301 169.3021 12.50491552659943
DELTA 1 R/B             
1 20323U 89089B   26067.10336230  .00000471  00000+0  12478-3 0  9999
2 20323  97.0706 274.7943 0070377 126.9278 233.8395 14.50661707895503
ARIANE 40 R/B           
1 20443U 90005H   26067.14574379  .00000385  00000+0  13608-3 0  9994
2 20443  98.3086 127.8532 0009750 203.1950 156.8800 14.39869512892586
DELTA 2 R/B(1)          
1 20453U 90008B   26067.02711154  .00083705  00000+0  98454-3 0  9998
2 20453  35.6040 185.7642 0085724 243.3717 115.8217 15.55745350925876
